STARLINK-30437          
1 58036U 23156J   26068.26676835 -.00000628  00000+0 -90727-5 0  9991
2 58036  53.1603  80.1618 0001127  92.6776 267.4354 15.30194159136205
TEVEL2-1                
1 63217U 25052H   26068.64782323  .00020683  00000+0  70600-3 0  9994
2 63217  97.3991 324.7682 0004767 104.8919 255.2849 15.30341923 54855
